BEESAT 9                
1 44412U 19038AC  24107.51996327  .00264256  00000+0  24294-2 0  9999
2 44412  97.6836 109.6571 0002616 246.9032 113.1952 15.66855591265080
JAISAT-1                
1 44419U 19038F   24107.92641233  .00252329  00000+0  24198-2 0  9995
2 44419  97.6824 111.1162 0002407 245.9177 114.1830 15.65834487265520
DUCHIFAT-3              
1 44854U 19089C   24108.17460381  .00032954  00000+0  17753-2 0  9994
2 44854  36.9587  58.8202 0009810 296.8573  63.1170 15.13932084238948
M2 PATHFINDER           
1 45727U 20037E   24108.02071203  .00007270  00000+0  64369-3 0  9993
2 45727  97.7742 284.8122 0010574 332.2886  27.7770 14.96524081206793
NETSAT-4                
1 46504U 20068U   24107.82226810  .00021430  00000+0  11976-2 0  9993
2 46504  97.8010  63.3968 0009086 200.9243 159.1616 15.13487347194886
NETSAT-3                
1 46505U 20068V   24107.85163949  .00018051  00000+0  10235-2 0  9992
2 46505  97.7981  63.0074 0008080 208.7100 151.3687 15.13013076194885
NETSAT-1                
1 46506U 20068W   24108.10533295  .00015895  00000+0  93541-3 0  9992
2 46506  97.7998  62.8676 0006711 219.8794 140.1943 15.11709164194890
NETSAT-2                
1 46507U 20068X   24107.83585742  .00021235  00000+0  11903-2 0  9992
2 46507  97.7985  63.0634 0005746 225.1265 134.9499 15.13401297194833
WILDTRACKCUBE-SIMBA     
1 47941U 21022K   24108.16607982  .00028328  00000+0  13382-2 0  9997
2 47941  97.4672   5.5467 0016169   6.3822 353.7616 15.19263433169197
BEESAT-6                
1 47957U 21022AB  24107.69546960  .00179512  00000+0  33717-2 0  9995
2 47957  97.4530  13.2532 0006217  13.0151 347.1258 15.47916965169486
SMOG-1                  
1 47964U 21022AJ  24108.18126201  .00168587  00000+0  31686-2 0  9993
2 47964  97.4690  16.8036 0004820 332.0924  28.0067 15.47945735168747
BCCSAT-1                
1 48041U 21022AK  24107.68947636  .00098297  00000+0  25254-2 0  9991
2 48041  97.4687  13.2092 0005827 337.8391  22.2601 15.38901424168446
BEESAT-5                
1 48083U 21022AM  24107.70951681  .00236244  00000+0  35582-2 0  9996
2 48083  97.4286  14.2042 0004338   2.5547 357.5728 15.53964729168727
BEESAT-7                
1 48084U 21022AN  24107.47136786  .00159469  00000+0  33084-2 0  9990
2 48084  97.4641  13.2953 0007009 344.2548  15.8482 15.45084952168181
BEESAT-8                
1 48085U 21022AP  24107.70318038  .00054677  00000+0  19786-2 0  9997
2 48085  97.4784   9.3288 0012612 358.0001   2.1186 15.28148981168476
LEDSAT                  
1 49069U 21073D   24108.17485502  .00034482  00000+0  14902-2 0  9996
2 49069  97.4414 179.8126 0021615 137.3538 222.9381 15.22180550147163
SITRO-AIS 5 (KATYS)     
1 57176U 23091L   24108.17324788  .00017320  00000+0  11505-2 0  9992
2 57176  97.6187 160.9151 0017046 333.4802  26.5552 15.07150695 44305
SITRO-AIS 6 (CHIRKIN)   
1 57192U 23091AC  24108.16088067  .00018051  00000+0  11967-2 0  9990
2 57192  97.6192 160.9232 0016861 333.4092  26.6269 15.07217306 44303
SITRO-AIS 8 (ANOKHIN)   
1 57193U 23091AD  24108.13998119  .00018399  00000+0  12123-2 0  9996
2 57193  97.6196 160.9450 0016429 335.7669  24.2784 15.07446134 44304
SITRO-AIS 7 (FARTUSHNIY)
1 57194U 23091AE  24108.16420898  .00017738  00000+0  11774-2 0  9991
2 57194  97.6188 160.9135 0016769 333.9255  26.1127 15.07177073 44309
SITRO-AIS 10 (BURDAEV)  
1 57199U 23091AK  24108.18111393  .00019208  00000+0  12108-2 0  9991
2 57199  97.6202 161.7106 0011325 323.6769  36.3690 15.09124743 44358
SITRO-AIS 9 (SHCHUKIN)  
1 57201U 23091AM  24108.17898341  .00019593  00000+0  12348-2 0  9992
2 57201  97.6196 161.6944 0011320 323.5111  36.5345 15.09128404 44355
SITRO-AIS 12 (SMIRENNIY)
1 57204U 23091AQ  24108.14887592  .00019685  00000+0  12348-2 0  9990
2 57204  97.6214 161.7714 0011083 317.8208  42.2167 15.09302140 44351
SITRO-AIS 11 (SHEFFER)  
1 57208U 23091AU  24108.13777510  .00020275  00000+0  12693-2 0  9991
2 57208  97.6212 161.7770 0010816 318.7230  41.3180 15.09371012 44352
SITRO-AIS B             
1 59052U 24039B   24108.18797492  .00040281  00000+0  16302-2 0  9999
2 59052  97.3878  70.8498 0022062  74.7968 285.5707 15.24353816  7294
SITRO-AIS C             
1 59053U 24039C   24108.18757824  .00042685  00000+0  17250-2 0  9998
2 59053  97.3876  70.8486 0022135  75.5391 284.8301 15.24387431  7281
SITRO-AIS 31            
1 59054U 24039D   24108.18500504  .00043591  00000+0  17568-2 0  9999
2 59054  97.3876  70.8518 0021965  75.5170 284.8502 15.24477357  7306
SITRO-AIS 33            
1 59055U 24039E   24108.18191966  .00045265  00000+0  18182-2 0  9991
2 59055  97.3879  70.8575 0021739  76.0453 284.3201 15.24584778  7297
SITRO-AIS F             
1 59056U 24039F   24108.18011735  .00044805  00000+0  17980-2 0  9991
2 59056  97.3879  70.8594 0021553  76.1646 284.1988 15.24622676  7298
SITRO-AIS G             
1 59057U 24039G   24108.18191817  .00045419  00000+0  18259-2 0  9994
2 59057  97.3878  70.8571 0021486  76.3275 284.0353 15.24561129  7298
SITRO-AIS 35            
1 59058U 24039H   24108.18085027  .00046195  00000+0  18537-2 0  9991
2 59058  97.3879  70.8597 0021665  76.2025 284.1621 15.24614410  7290
SITRO-AIS 36            
1 59059U 24039J   24108.17807961  .00045282  00000+0  18135-2 0  9990
2 59059  97.3879  70.8626 0021252  76.3644 283.9959 15.24693572  7291
SITRO-AIS 49            
1 59060U 24039K   24108.17735561  .00040280  00000+0  16144-2 0  9999
2 59060  97.3879  70.8630 0021231  76.1999 284.1600 15.24696833  7295
SITRO-AIS 50            
1 59061U 24039L   24108.17524571  .00043401  00000+0  17324-2 0  9996
2 59061  97.3878  70.8659 0021261  76.4140 283.9464 15.24815060  7290
SITRO-AIS 51            
1 59062U 24039M   24108.17438512  .00045027  00000+0  17963-2 0  9991
2 59062  97.3880  70.8673 0021177  76.2088 284.1505 15.24826248  7294
SITRO-AIS 52            
1 59063U 24039N   24108.17203302  .00044325  00000+0  17645-2 0  9996
2 59063  97.3880  70.8704 0021007  76.1299 284.2274 15.24905338  7297
SITRO-AIS 25            
1 59066U 24039R   24108.18550834  .00009568  00000+0  93334-3 0  9995
2 59066  95.3988  56.0879 0173792 191.9140 167.7945 14.81815496  7079
SITRO-AIS 26            
1 59067U 24039S   24108.18490752  .00009578  00000+0  93462-3 0  9991
2 59067  95.3987  56.0881 0173584 191.9426 167.7654 14.81828361  7070
SITRO-AIS 27            
1 59068U 24039T   24108.18137453  .00009669  00000+0  94110-3 0  9990
2 59068  95.3989  56.0929 0173344 191.8243 167.8884 14.81948423  7074
SITRO-AIS 28            
1 59071U 24039U   24108.18022370  .00009407  00000+0  91538-3 0  9996
2 59071  95.3990  56.0946 0173205 191.8264 167.8866 14.81980906  7070
BEIJING 1               
1 28890U 05043A   24108.19144933  .00001264  00000+0  25993-3 0  9991
2 28890  98.1903 231.5277 0013948 234.3387 125.6517 14.62233711984986
HJ-1A                   
1 33320U 08041A   24108.23919985  .00005796  00000+0  77780-3 0  9993
2 33320  97.6341 118.2724 0019683 205.8816 154.1414 14.79568084841347
HJ-1B                   
1 33321U 08041B   24108.18968403  .00003163  00000+0  42013-3 0  9994
2 33321  97.6300 122.7650 0036959 254.6934 105.0192 14.79979225841351
YAOGAN 4                
1 33446U 08061A   24108.16220211  .00005018  00000+0  67718-3 0  9990
2 33446  97.8759  41.2253 0016470 121.3676 238.9149 14.79454628828530
DEIMOS-1                
1 35681U 09041A   24108.13716285  .00002055  00000+0  32587-3 0  9994
2 35681  97.6804 293.3396 0001134 158.5653 201.5604 14.73161465790323
UK-DMC 2                
1 35683U 09041C   24108.21128410  .00003431  00000+0  54058-3 0  9998
2 35683  97.7720 258.4065 0001129  94.5271 265.6066 14.73072257790038
RISAT 1                 
1 38248U 12017A   24107.98972641  .00021697  00000+0  94377-3 0  9993
2 38248  97.5288 125.2362 0005049 100.2547 259.9258 15.22263450660286
DMC3-FM1                
1 40715U 15032A   24108.19434712  .00002075  00000+0  25855-3 0  9995
2 40715  97.7588 348.8751 0006930 124.1656 236.0216 14.83489650472531
DMC3-FM2                
1 40716U 15032B   24108.21742824  .00002046  00000+0  25497-3 0  9995
2 40716  97.7640 349.9263 0008768 129.9171 230.2815 14.83493285472537
DMC3-FM3                
1 40717U 15032C   24108.17257059  .00001677  00000+0  21023-3 0  9992
2 40717  97.7688 351.1262 0010282 128.3128 231.9012 14.83460920472530
GSAT0101 (PRN E11)      
1 37846U 11060A   24106.95870844 -.00000111  00000+0  00000+0 0  9996
2 37846  57.1268   3.2166 0004181  16.5436 343.4986  1.70476083 77610
GSAT0102 (PRN E12)      
1 37847U 11060B   24107.77896580 -.00000110  00000+0  00000+0 0  9992
2 37847  57.1276   3.1945 0004736 352.9290 196.3280  1.70475454 77630
GSAT0103 (PRN E19)      
1 38857U 12055A   24105.82474486  .00000036  00000+0  00000+0 0  9996
2 38857  55.3772 123.3450 0005989 274.2479  85.7219  1.70473665 71487
GSAT0104 (PRN E20)      
1 38858U 12055B   24107.81109734  .00000052  00000+0  00000+0 0  9997
2 38858  55.3847 123.3388 0002071 284.3999  75.6210  1.64592216   106
GSAT0201 (PRN E18)      
1 40128U 14050A   24107.10327332 -.00000056  00000+0  00000+0 0  9990
2 40128  49.7219 305.5555 1608944 148.7982 221.8401  1.85519575 63629
GSAT0202 (PRN E14)      
1 40129U 14050B   24103.58885813 -.00000066  00000+0  00000+0 0  9993
2 40129  49.7426 304.7724 1607278 149.4666 220.9593  1.85520193 65728
GSAT0203 (PRN E26)      
1 40544U 15017A   24107.32457019 -.00000111  00000+0  00000+0 0  9998
2 40544  56.9220   3.1491 0002581 302.4312  57.5725  1.70475658 55703
GSAT0204 (PRN E22)      
1 40545U 15017B   24106.99207188 -.00000111  00000+0  00000+0 0  9991
2 40545  56.9283   3.1733 0002273 284.7698  75.2335  1.70475598 18749
GSAT0205 (PRN E24)      
1 40889U 15045A   24106.17376631 -.00000016  00000+0  00000+0 0  9997
2 40889  55.2494 243.5093 0004934  44.0390 315.9602  1.70473907 53491
